[{"OBJECT_NAME":"STARLINK-1270","OBJECT_ID":"2020-012BM","EPOCH":"2026-03-09T23:16:53.813856","MEAN_MOTION":15.47116373,"ECCENTRICITY":0.00038015,"INCLINATION":53.0511,"RA_OF_ASC_NODE":346.2195,"ARG_OF_PERICENTER":102.222,"MEAN_ANOMALY":257.9213,"EPHEMERIS_TYPE":0,"CLASSIFICATION_TYPE":"U","NORAD_CAT_ID":45237,"ELEMENT_SET_NO":999,"REV_AT_EPOCH":33571,"BSTAR":0.0019102409,"MEAN_MOTION_DOT":0.00099262,"MEAN_MOTION_DDOT":0},{"OBJECT_NAME":"SITRO-AIS 39","OBJECT_ID":"2024-199AV","EPOCH":"2026-03-09T21:45:33.461856","MEAN_MOTION":15.49706693,"ECCENTRICITY":0.00072488,"INCLINATION":97.3088,"RA_OF_ASC_NODE":302.8491,"ARG_OF_PERICENTER":301.349,"MEAN_ANOMALY":58.7052,"EPHEMERIS_TYPE":0,"CLASSIFICATION_TYPE":"U","NORAD_CAT_ID":61778,"ELEMENT_SET_NO":999,"REV_AT_EPOCH":11900,"BSTAR":0.00077550481,"MEAN_MOTION_DOT":0.00043134,"MEAN_MOTION_DDOT":0}]
